[ {"name": "STARLINK-31791", "line1": "1 59637U 24082G   26192.00198923  .00000292  00000+0  20146-4 0  9997", "line2": "2 59637  43.0007 163.1731 0001155 244.3580 115.7152 15.27587349123678"}, {"name": "STARLINK-31727", "line1": "1 59638U 24082H   26192.31107110 -.00000127  00000+0  49256-5 0  9992", "line2": "2 59638  43.0029 162.0527 0001312 266.5779  93.4923 15.27577674123763"}, {"name": "STARLINK-31807", "line1": "1 59639U 24082J   26192.30336840 -.00000921  00000+0 -23948-4 0  9998", "line2": "2 59639  43.0027 162.0002 0001191 274.9446  85.1270 15.27582854123713"}, {"name": "STARLINK-31806", "line1": "1 59640U 24082K   26192.28537214 -.00000346  00000+0 -30510-5 0  9990", "line2": "2 59640  43.0002 161.8615 0000725 269.9775  90.0994 15.27575742123712"}, {"name": "STARLINK-31804", "line1": "1 59641U 24082L   26192.39044556  .00000541  00000+0  29199-4 0  9990", "line2": "2 59641  43.0017 160.9291 0001132 277.9460  82.1263 15.27575925123738"}, {"name": "STARLINK-31660", "line1": "1 59642U 24082M   26192.16207683  .00000715  00000+0  35492-4 0  9994", "line2": "2 59642  43.0002 122.1280 0000815 276.2324  83.8435 15.27576867124353"}, {"name": "STARLINK-31800", "line1": "1 59643U 24082N   26192.36232208 -.00000429  00000+0 -60826-5 0  9992", "line2": "2 59643  43.0020 161.5658 0000500 291.0105  69.0693 15.27576991123824"}, {"name": "STARLINK-31789", "line1": "1 59644U 24082P   26192.79433279  .00008067  00000+0  30233-3 0  9992", "line2": "2 59644  42.9937 158.8008 0001022   3.8748 356.2111 15.27580428123994"}, {"name": "STARLINK-31795", "line1": "1 59645U 24082Q   26192.16178180  .00000770  00000+0  37507-4 0  9996", "line2": "2 59645  43.0052 103.9343 0002172 259.7331 100.3276 15.27577842124363"}, {"name": "STARLINK-31796", "line1": "1 59646U 24082R   26192.40844342  .00000009  00000+0  98435-5 0  9997", "line2": "2 59646  43.0007 161.0601 0000707 323.7245  36.3558 15.27585688123899"}, {"name": "STARLINK-31801", "line1": "1 59647U 24082S   26191.98799899 -.00000192  00000+0  25662-5 0  9992", "line2": "2 59647  43.0025 163.9265 0001430 275.6742  84.3946 15.27586031123716"}, {"name": "STARLINK-31787", "line1": "1 59650U 24082V   26192.34693732 -.00008728  00000+0 -30822-3 0  9992", "line2": "2 59650  42.9985 161.4628 0001099 304.3610  55.7138 15.27557896123929"}, {"name": "STARLINK-31277", "line1": "1 59651U 24082W   26192.28923029 -.00000923  00000+0 -24026-4 0  9990", "line2": "2 59651  43.0008 161.8904 0000882 282.2536  77.8217 15.27575089123915"}, {"name": "STARLINK-31799", "line1": "1 59652U 24082X   26191.34570964 -.00001630  00000+0 -49684-4 0  9996", "line2": "2 59652  43.0053 156.4421 0002183 259.8204 100.2401 15.27582400123740"}, {"name": "STARLINK-31589", "line1": "1 59654U 24084A   26191.08347662 -.00001073  00000+0 -29481-4 0  9992", "line2": "2 59654  43.0047  70.4134 0000284 254.3657 105.7163 15.27575241123114"}, {"name": "STARLINK-31665", "line1": "1 59655U 24084B   26192.79170374  .00001956  00000+0  80567-4 0  9996", "line2": "2 59655  43.0023  57.4214 0001235 264.3611  95.7100 15.27583504123391"}, {"name": "STARLINK-31912", "line1": "1 59656U 24084C   26191.96175397 -.00003280  00000+0 -10969-3 0  9997", "line2": "2 59656  43.0065  65.8300 0001615 274.2209  85.8458 15.27585392123227"}, {"name": "STARLINK-31904", "line1": "1 59657U 24084D   26192.01687393  .00000072  00000+0  12155-4 0  9993", "line2": "2 59657  43.0027  65.3840 0001283 271.1244  88.9460 15.27571774123233"}, {"name": "STARLINK-31858", "line1": "1 59658U 24084E   26190.94498699 -.00000609  00000+0 -12619-4 0  9996", "line2": "2 59658  43.0044  71.0898 0000950 288.4971  71.5778 15.27575990123074"}, {"name": "STARLINK-31881", "line1": "1 59659U 24084F   26190.02234669  .00000354  00000+0  22390-4 0  9993", "line2": "2 59659  43.0031  72.7444 0001116 272.5148  87.5576 15.27590928122970"}, {"name": "STARLINK-31885", "line1": "1 59660U 24084G   26192.01478729  .00000420  00000+0  24791-4 0  9994", "line2": "2 59660  43.0016  61.9077 0001120 272.1968  87.8755 15.27574538123273"}, {"name": "STARLINK-31880", "line1": "1 59661U 24084H   26192.06603327  .00000337  00000+0  21771-4 0  9996", "line2": "2 59661  43.0059  61.4304 0001601 266.8712  93.1957 15.27576059123285"}, {"name": "STARLINK-31886", "line1": "1 59662U 24084J   26192.02329801  .00000051  00000+0  11418-4 0  9995", "line2": "2 59662  43.0052  65.4322 0002558 271.2760  88.7799 15.27569406123235"}, {"name": "STARLINK-31909", "line1": "1 59663U 24084K   26192.04619219  .00007240  00000+0  27122-3 0  9998", "line2": "2 59663  43.0045  64.7815 0001620 300.9541  59.1151 15.27717381123245"}, {"name": "STARLINK-31910", "line1": "1 59664U 24084L   26191.99501927  .00000456  00000+0  26102-4 0  9998", "line2": "2 59664  43.0007  65.2072 0001659 257.8544 102.2122 15.27579224123239"}, {"name": "STARLINK-31902", "line1": "1 59666U 24084N   26192.03100467  .00000855  00000+0  40590-4 0  9990", "line2": "2 59666  43.0050  65.4859 0000720 307.1349  52.9437 15.27577747123232"}, {"name": "STARLINK-31913", "line1": "1 59667U 24084P   26191.99678718 -.00000344  00000+0 -29813-5 0  9995", "line2": "2 59667  43.0022  61.7657 0001036 281.0540  79.0195 15.27585927123275"}, {"name": "STARLINK-31866", "line1": "1 59668U 24084Q   26191.97671431  .00000233  00000+0  18002-4 0  9991", "line2": "2 59668  43.0035  58.1284 0000788 275.6215  84.4546 15.27575623123314"}]