OBJECT_NAME,OBJECT_ID,EPOCH,MEAN_MOTION,ECCENTRICITY,INCLINATION,RA_OF_ASC_NODE,ARG_OF_PERICENTER,MEAN_ANOMALY,EPHEMERIS_TYPE,CLASSIFICATION_TYPE,NORAD_CAT_ID,ELEMENT_SET_NO,REV_AT_EPOCH,BSTAR,MEAN_MOTION_DOT,MEAN_MOTION_DDOT
STARLINK-31791,2024-082G,2026-07-11T00:02:51.869472,15.27587349,.00011554,43.0007,163.1731,244.3580,115.7152,0,U,59637,999,12367,.20145615E-4,.292E-5,0
STARLINK-31727,2024-082H,2026-07-11T07:27:56.543040,15.27577674,.00013125,43.0029,162.0527,266.5779,93.4923,0,U,59638,999,12376,.4925647E-5,-.127E-5,0
STARLINK-31807,2024-082J,2026-07-11T07:16:51.029760,15.27582854,.00011911,43.0027,162.0002,274.9446,85.1270,0,U,59639,999,12371,-.23948354E-4,-.921E-5,0
STARLINK-31806,2024-082K,2026-07-11T06:50:56.152896,15.27575742,.00007259,43.0002,161.8615,269.9775,90.0994,0,U,59640,999,12371,-.3050954E-5,-.346E-5,0
STARLINK-31804,2024-082L,2026-07-11T09:22:14.496384,15.27575925,.0001132,43.0017,160.9291,277.9460,82.1263,0,U,59641,999,12373,.2919894E-4,.541E-5,0
STARLINK-31660,2024-082M,2026-07-11T03:53:23.438112,15.27576867,.0000815,43.0002,122.1280,276.2324,83.8435,0,U,59642,999,12435,.35492182E-4,.715E-5,0
STARLINK-31800,2024-082N,2026-07-11T08:41:44.627712,15.27576991,.00005008,43.0020,161.5658,291.0105,69.0693,0,U,59643,999,12382,-.6082588E-5,-.429E-5,0
STARLINK-31789,2024-082P,2026-07-11T19:03:50.353056,15.27580428,.0001022,42.9937,158.8008,3.8748,356.2111,0,U,59644,999,12399,.30233E-3,.8067E-4,0
STARLINK-31795,2024-082Q,2026-07-11T03:52:57.947520,15.27577842,.00021722,43.0052,103.9343,259.7331,100.3276,0,U,59645,999,12436,.37506582E-4,.77E-5,0
STARLINK-31796,2024-082R,2026-07-11T09:48:09.511488,15.27585688,.00007072,43.0007,161.0601,323.7245,36.3558,0,U,59646,999,12389,.9843533E-5,.9E-7,0
STARLINK-31801,2024-082S,2026-07-10T23:42:43.112736,15.27586031,.00014304,43.0025,163.9265,275.6742,84.3946,0,U,59647,999,12371,.2566211E-5,-.192E-5,0
STARLINK-31787,2024-082V,2026-07-11T08:19:35.384448,15.27557896,.0001099,42.9985,161.4628,304.3610,55.7138,0,U,59650,999,12392,-.3082157E-3,-.8728E-4,0
STARLINK-31277,2024-082W,2026-07-11T06:56:29.497056,15.27575089,.00008826,43.0008,161.8904,282.2536,77.8217,0,U,59651,999,12391,-.24025761E-4,-.923E-5,0
STARLINK-31799,2024-082X,2026-07-10T08:17:49.312896,15.27582400,.00021831,43.0053,156.4421,259.8204,100.2401,0,U,59652,999,12374,-.49683734E-4,-.163E-4,0
STARLINK-31589,2024-084A,2026-07-10T02:00:12.379968,15.27575241,.00002848,43.0047,70.4134,254.3657,105.7163,0,U,59654,999,12311,-.29481382E-4,-.1073E-4,0
STARLINK-31665,2024-084B,2026-07-11T19:00:03.203136,15.27583504,.0001235,43.0023,57.4214,264.3611,95.7100,0,U,59655,999,12339,.80567E-4,.1956E-4,0
STARLINK-31912,2024-084C,2026-07-10T23:04:55.543008,15.27585392,.00016156,43.0065,65.8300,274.2209,85.8458,0,U,59656,999,12322,-.10968532E-3,-.328E-4,0
STARLINK-31904,2024-084D,2026-07-11T00:24:17.907552,15.27571774,.00012839,43.0027,65.3840,271.1244,88.9460,0,U,59657,999,12323,.12155061E-4,.72E-6,0
STARLINK-31858,2024-084E,2026-07-09T22:40:46.875936,15.27575990,.00009504,43.0044,71.0898,288.4971,71.5778,0,U,59658,999,12307,-.126186E-4,-.609E-5,0
STARLINK-31881,2024-084F,2026-07-09T00:32:10.754016,15.27590928,.00011164,43.0031,72.7444,272.5148,87.5576,0,U,59659,999,12297,.22389731E-4,.354E-5,0
STARLINK-31885,2024-084G,2026-07-11T00:21:17.621856,15.27574538,.00011207,43.0016,61.9077,272.1968,87.8755,0,U,59660,999,12327,.24791274E-4,.42E-5,0
STARLINK-31880,2024-084H,2026-07-11T01:35:05.274528,15.27576059,.00016012,43.0059,61.4304,266.8712,93.1957,0,U,59661,999,12328,.21771026E-4,.337E-5,0
STARLINK-31886,2024-084J,2026-07-11T00:33:32.948064,15.27569406,.00025582,43.0052,65.4322,271.2760,88.7799,0,U,59662,999,12323,.11418462E-4,.51E-6,0
STARLINK-31909,2024-084K,2026-07-11T01:06:31.005216,15.27717381,.000162,43.0045,64.7815,300.9541,59.1151,0,U,59663,999,12324,.27122314E-3,.724E-4,0
STARLINK-31910,2024-084L,2026-07-10T23:52:49.664928,15.27579224,.0001659,43.0007,65.2072,257.8544,102.2122,0,U,59664,999,12323,.26102179E-4,.456E-5,0
STARLINK-31902,2024-084N,2026-07-11T00:44:38.803488,15.27577747,.00007208,43.0050,65.4859,307.1349,52.9437,0,U,59666,999,12323,.40589519E-4,.855E-5,0
STARLINK-31913,2024-084P,2026-07-10T23:55:22.412352,15.27585927,.00010361,43.0022,61.7657,281.0540,79.0195,0,U,59667,999,12327,-.2981322E-5,-.344E-5,0
STARLINK-31866,2024-084Q,2026-07-10T23:26:28.116384,15.27575623,.00007882,43.0035,58.1284,275.6215,84.4546,0,U,59668,999,12331,.18001958E-4,.233E-5,0
